{"fetched_at":"2026-07-23T07:05:17.272Z","source":"https://celestrak.org/NORAD/elements/gp.php?GROUP=kuiper&FORMAT=JSON","constellation":"kuiper","records":[{"OBJECT_NAME":"KUIPER-00114","OBJECT_ID":"2025-171V","EPOCH":"2026-07-22T07:30:43.135200","CLASSIFICATION_TYPE":"U","MEAN_MOTION":14.79959527,"ECCENTRICITY":0.00002391,"INCLINATION":51.9014,"RA_OF_ASC_NODE":300.2922,"ARG_OF_PERICENTER":120.6948,"MEAN_ANOMALY":239.4038,"EPHEMERIS_TYPE":0,"NORAD_CAT_ID":65151,"ELEMENT_SET_NO":999,"REV_AT_EPOCH":5257,"BSTAR":0.00043020577,"MEAN_MOTION_DOT":0.00003062,"MEAN_MOTION_DDOT":0},{"OBJECT_NAME":"KUIPER-00115","OBJECT_ID":"2025-171W","EPOCH":"2026-07-22T15:48:36.235872","CLASSIFICATION_TYPE":"U","MEAN_MOTION":14.79954674,"ECCENTRICITY":0.00003546,"INCLINATION":51.9007,"RA_OF_ASC_NODE":291.2647,"ARG_OF_PERICENTER":106.4973,"MEAN_ANOMALY":253.6028,"EPHEMERIS_TYPE":0,"NORAD_CAT_ID":65152,"ELEMENT_SET_NO":999,"REV_AT_EPOCH":5273,"BSTAR":0.00043315712,"MEAN_MOTION_DOT":0.00003084,"MEAN_MOTION_DDOT":0},{"OBJECT_NAME":"KUIPER-00116","OBJECT_ID":"2025-171X","EPOCH":"2026-07-22T14:52:15.158496","CLASSIFICATION_TYPE":"U","MEAN_MOTION":14.79940722,"ECCENTRICITY":0.00005462,"INCLINATION":51.9012,"RA_OF_ASC_NODE":296.4722,"ARG_OF_PERICENTER":97.6513,"MEAN_ANOMALY":262.4512,"EPHEMERIS_TYPE":0,"NORAD_CAT_ID":65153,"ELEMENT_SET_NO":999,"REV_AT_EPOCH":5265,"BSTAR":0.00035547209,"MEAN_MOTION_DOT":0.0000249,"MEAN_MOTION_DDOT":0},{"OBJECT_NAME":"KUIPER-00118","OBJECT_ID":"2025-171Y","EPOCH":"2026-07-22T14:48:16.986528","CLASSIFICATION_TYPE":"U","MEAN_MOTION":14.79961009,"ECCENTRICITY":0.00003193,"INCLINATION":51.8994,"RA_OF_ASC_NODE":298.9346,"ARG_OF_PERICENTER":108.5261,"MEAN_ANOMALY":251.5736,"EPHEMERIS_TYPE":0,"NORAD_CAT_ID":65154,"ELEMENT_SET_NO":999,"REV_AT_EPOCH":5262,"BSTAR":0.00044829846,"MEAN_MOTION_DOT":0.000032,"MEAN_MOTION_DDOT":0},{"OBJECT_NAME":"KUIPER-00119","OBJECT_ID":"2025-171Z","EPOCH":"2026-07-21T13:11:53.115648","CLASSIFICATION_TYPE":"U","MEAN_MOTION":14.7994426,"ECCENTRICITY":0.00002296,"INCLINATION":51.9002,"RA_OF_ASC_NODE":291.2479,"ARG_OF_PERICENTER":223.3853,"MEAN_ANOMALY":136.7091,"EPHEMERIS_TYPE":0,"NORAD_CAT_ID":65155,"ELEMENT_SET_NO":999,"REV_AT_EPOCH":5263,"BSTAR":-0.00016862256,"MEAN_MOTION_DOT":-0.00001507,"MEAN_MOTION_DDOT":0},{"OBJECT_NAME":"KUIPER-00120","OBJECT_ID":"2025-217A","EPOCH":"2026-07-22T22:26:01.375296","CLASSIFICATION_TYPE":"U","MEAN_MOTION":14.79951719,"ECCENTRICITY":0.00006561,"INCLINATION":51.8976,"RA_OF_ASC_NODE":175.0003,"ARG_OF_PERICENTER":61.7219,"MEAN_ANOMALY":298.3809,"EPHEMERIS_TYPE":0,"NORAD_CAT_ID":65762,"ELEMENT_SET_NO":999,"REV_AT_EPOCH":4476,"BSTAR":0.00037522345,"MEAN_MOTION_DOT":0.00002642,"MEAN_MOTION_DDOT":0},{"OBJECT_NAME":"KUIPER-00132","OBJECT_ID":"2025-217B","EPOCH":"2026-07-21T00:25:35.110272","CLASSIFICATION_TYPE":"U","MEAN_MOTION":15.43440918,"ECCENTRICITY":0.00071908,"INCLINATION":51.855,"RA_OF_ASC_NODE":74.2722,"ARG_OF_PERICENTER":85.185,"MEAN_ANOMALY":274.996,"EPHEMERIS_TYPE":0,"NORAD_CAT_ID":65763,"ELEMENT_SET_NO":999,"REV_AT_EPOCH":4599,"BSTAR":0.0004864552,"MEAN_MOTION_DOT":0.00021781,"MEAN_MOTION_DDOT":0},{"OBJECT_NAME":"KUIPER-00133","OBJECT_ID":"2025-217C","EPOCH":"2026-07-22T15:08:27.225888","CLASSIFICATION_TYPE":"U","MEAN_MOTION":14.7995068,"ECCENTRICITY":0.00006238,"INCLINATION":51.9017,"RA_OF_ASC_NODE":176.4566,"ARG_OF_PERICENTER":56.1353,"MEAN_ANOMALY":303.9669,"EPHEMERIS_TYPE":0,"NORAD_CAT_ID":65764,"ELEMENT_SET_NO":999,"REV_AT_EPOCH":4472,"BSTAR":0.00035149416,"MEAN_MOTION_DOT":0.0000246,"MEAN_MOTION_DDOT":0},{"OBJECT_NAME":"KUIPER-00139","OBJECT_ID":"2025-217D","EPOCH":"2026-07-22T20:50:40.238592","CLASSIFICATION_TYPE":"U","MEAN_MOTION":14.79948612,"ECCENTRICITY":0.00007728,"INCLINATION":51.8978,"RA_OF_ASC_NODE":142.8607,"ARG_OF_PERICENTER":82.8729,"MEAN_ANOMALY":277.2321,"EPHEMERIS_TYPE":0,"NORAD_CAT_ID":65765,"ELEMENT_SET_NO":999,"REV_AT_EPOCH":4521,"BSTAR":0.00048691797,"MEAN_MOTION_DOT":0.00003494,"MEAN_MOTION_DDOT":0},{"OBJECT_NAME":"KUIPER-00142","OBJECT_ID":"2025-217E","EPOCH":"2026-07-22T21:15:59.050368","CLASSIFICATION_TYPE":"U","MEAN_MOTION":14.79941607,"ECCENTRICITY":0.0000637,"INCLINATION":51.8979,"RA_OF_ASC_NODE":157.7436,"ARG_OF_PERICENTER":68.538,"MEAN_ANOMALY":291.565,"EPHEMERIS_TYPE":0,"NORAD_CAT_ID":65766,"ELEMENT_SET_NO":999,"REV_AT_EPOCH":4500,"BSTAR":0.00045647602,"MEAN_MOTION_DOT":0.00003261,"MEAN_MOTION_DDOT":0},{"OBJECT_NAME":"KUIPER-00145","OBJECT_ID":"2025-217F","EPOCH":"2026-07-22T21:12:06.509952","CLASSIFICATION_TYPE":"U","MEAN_MOTION":14.79980021,"ECCENTRICITY":0.00009632,"INCLINATION":51.8988,"RA_OF_ASC_NODE":160.2769,"ARG_OF_PERICENTER":83.1339,"MEAN_ANOMALY":276.9733,"EPHEMERIS_TYPE":0,"NORAD_CAT_ID":65767,"ELEMENT_SET_NO":999,"REV_AT_EPOCH":4496,"BSTAR":0.00033393202,"MEAN_MOTION_DOT":0.00002328,"MEAN_MOTION_DDOT":0},{"OBJECT_NAME":"KUIPER-00147","OBJECT_ID":"2025-217G","EPOCH":"2026-07-22T21:56:50.035200","CLASSIFICATION_TYPE":"U","MEAN_MOTION":14.79941494,"ECCENTRICITY":0.00006006,"INCLINATION":51.8988,"RA_OF_ASC_NODE":162.6185,"ARG_OF_PERICENTER":97.5329,"MEAN_ANOMALY":262.5702,"EPHEMERIS_TYPE":0,"NORAD_CAT_ID":65768,"ELEMENT_SET_NO":999,"REV_AT_EPOCH":4493,"BSTAR":0.0004494112,"MEAN_MOTION_DOT":0.00003207,"MEAN_MOTION_DDOT":0},{"OBJECT_NAME":"KUIPER-00148","OBJECT_ID":"2025-217H","EPOCH":"2026-07-22T20:46:44.960160","CLASSIFICATION_TYPE":"U","MEAN_MOTION":14.79925118,"ECCENTRICITY":0.00008206,"INCLINATION":51.9045,"RA_OF_ASC_NODE":145.3527,"ARG_OF_PERICENTER":76.496,"MEAN_ANOMALY":283.6093,"EPHEMERIS_TYPE":0,"NORAD_CAT_ID":65769,"ELEMENT_SET_NO":999,"REV_AT_EPOCH":4517,"BSTAR":0.00047162178,"MEAN_MOTION_DOT":0.00003375,"MEAN_MOTION_DDOT":0},{"OBJECT_NAME":"KUIPER-00150","OBJECT_ID":"2025-217J","EPOCH":"2026-07-22T15:12:17.319456","CLASSIFICATION_TYPE":"U","MEAN_MOTION":14.79932304,"ECCENTRICITY":0.00005996,"INCLINATION":51.902,"RA_OF_ASC_NODE":173.8944,"ARG_OF_PERICENTER":72.2917,"MEAN_ANOMALY":287.8111,"EPHEMERIS_TYPE":0,"NORAD_CAT_ID":65770,"ELEMENT_SET_NO":999,"REV_AT_EPOCH":4475,"BSTAR":-0.00010938432,"MEAN_MOTION_DOT":-0.00001055,"MEAN_MOTION_DDOT":0},{"OBJECT_NAME":"KUIPER-00151","OBJECT_ID":"2025-217K","EPOCH":"2026-07-22T21:52:57.856800","CLASSIFICATION_TYPE":"U","MEAN_MOTION":14.79939378,"ECCENTRICITY":0.00006842,"INCLINATION":51.9004,"RA_OF_ASC_NODE":165.166,"ARG_OF_PERICENTER":60.8422,"MEAN_ANOMALY":299.2608,"EPHEMERIS_TYPE":0,"NORAD_CAT_ID":65771,"ELEMENT_SET_NO":999,"REV_AT_EPOCH":4490,"BSTAR":0.00040798484,"MEAN_MOTION_DOT":0.00002891,"MEAN_MOTION_DDOT":0},{"OBJECT_NAME":"KUIPER-00152","OBJECT_ID":"2025-217L","EPOCH":"2026-07-22T21:23:45.307104","CLASSIFICATION_TYPE":"U","MEAN_MOTION":14.79956594,"ECCENTRICITY":0.00008612,"INCLINATION":51.9002,"RA_OF_ASC_NODE":152.7388,"ARG_OF_PERICENTER":69.9795,"MEAN_ANOMALY":290.126,"EPHEMERIS_TYPE":0,"NORAD_CAT_ID":65772,"ELEMENT_SET_NO":999,"REV_AT_EPOCH":4507,"BSTAR":0.00045874407,"MEAN_MOTION_DOT":0.0000328,"MEAN_MOTION_DDOT":0}]}
