{"epoch":1784799577,"count":18318,"objects":[{"id":"65151","name":"KUIPER-00114","type":"PAYLOAD","l1":"1 65151U 25171V   26203.31299925  .00003062  00000-0  43021-3 0  9991","l2":"2 65151  51.9014 300.2922 0000239 120.6948 239.4038 14.79959527 52578"},{"id":"65152","name":"KUIPER-00115","type":"PAYLOAD","l1":"1 65152U 25171W   26203.65875273  .00003084  00000-0  43316-3 0  9996","l2":"2 65152  51.9007 291.2647 0000355 106.4973 253.6028 14.79954674 52736"},{"id":"65153","name":"KUIPER-00116","type":"PAYLOAD","l1":"1 65153U 25171X   26203.61961989  .00002490  00000-0  35547-3 0  9990","l2":"2 65153  51.9012 296.4722 0000546  97.6513 262.4512 14.79940722 52653"},{"id":"65154","name":"KUIPER-00118","type":"PAYLOAD","l1":"1 65154U 25171Y   26203.61686327  .00003200  00000-0  44830-3 0  9996","l2":"2 65154  51.8994 298.9346 0000319 108.5261 251.5736 14.79961009 52626"},{"id":"65155","name":"KUIPER-00119","type":"PAYLOAD","l1":"1 65155U 25171Z   26202.54992032 -.00001507  00000-0 -16862-3 0  9995","l2":"2 65155  51.9002 291.2479 0000230 223.3853 136.7091 14.79944260 52635"},{"id":"65762","name":"KUIPER-00120","type":"PAYLOAD","l1":"1 65762U 25217A   26203.93473814  .00002642  00000-0  37522-3 0  9991","l2":"2 65762  51.8976 175.0003 0000656  61.7219 298.3809 14.79951719 44766"},{"id":"65763","name":"KUIPER-00132","type":"PAYLOAD","l1":"1 65763U 25217B   26202.01776748  .00021781  00000-0  48646-3 0  9996","l2":"2 65763  51.8550  74.2722 0007191  85.1850 274.9960 15.43440918 45995"},{"id":"65764","name":"KUIPER-00133","type":"PAYLOAD","l1":"1 65764U 25217C   26203.63087067  .00002460  00000-0  35149-3 0  9992","l2":"2 65764  51.9017 176.4566 0000624  56.1353 303.9669 14.79950680 44725"},{"id":"65765","name":"KUIPER-00139","type":"PAYLOAD","l1":"1 65765U 25217D   26203.86852128  .00003494  00000-0  48692-3 0  9991","l2":"2 65765  51.8978 142.8607 0000773  82.8729 277.2321 14.79948612 45217"},{"id":"65766","name":"KUIPER-00142","type":"PAYLOAD","l1":"1 65766U 25217E   26203.88610012  .00003261  00000-0  45648-3 0  9998","l2":"2 65766  51.8979 157.7436 0000637  68.5380 291.5650 14.79941607 45005"},{"id":"65767","name":"KUIPER-00145","type":"PAYLOAD","l1":"1 65767U 25217F   26203.88340868  .00002328  00000-0  33393-3 0  9995","l2":"2 65767  51.8988 160.2769 0000963  83.1339 276.9733 14.79980021 44969"},{"id":"65768","name":"KUIPER-00147","type":"PAYLOAD","l1":"1 65768U 25217G   26203.91446800  .00003207  00000-0  44941-3 0  9991","l2":"2 65768  51.8988 162.6185 0000601  97.5329 262.5702 14.79941494 44930"},{"id":"65769","name":"KUIPER-00148","type":"PAYLOAD","l1":"1 65769U 25217H   26203.86579815  .00003375  00000-0  47162-3 0  9993","l2":"2 65769  51.9045 145.3527 0000821  76.4960 283.6093 14.79925118 45174"},{"id":"65770","name":"KUIPER-00150","type":"PAYLOAD","l1":"1 65770U 25217J   26203.63353379 -.00001055  00000-0 -10938-3 0  9991","l2":"2 65770  51.9020 173.8944 0000600  72.2917 287.8111 14.79932304 44754"},{"id":"65771","name":"KUIPER-00151","type":"PAYLOAD","l1":"1 65771U 25217K   26203.91178075  .00002891  00000-0  40798-3 0  9995","l2":"2 65771  51.9004 165.1660 0000684  60.8422 299.2608 14.79939378 44905"},{"id":"65772","name":"KUIPER-00152","type":"PAYLOAD","l1":"1 65772U 25217L   26203.89149661  .00003280  00000-0  45874-3 0  9995","l2":"2 65772  51.9002 152.7388 0000861  69.9795 290.1260 14.79956594 45075"}]}